{
  "links" : {
    "next" : "https://api.nasa.gov/neo/rest/v1/feed?start_date=2011-02-09&end_date=2011-02-09&detailed=true&api_key=t0TVs3DtDT2H8Oy2Zy8m2eVrNsAVKAexjcZXUckd",
    "prev" : "https://api.nasa.gov/neo/rest/v1/feed?start_date=2011-02-07&end_date=2011-02-07&detailed=true&api_key=t0TVs3DtDT2H8Oy2Zy8m2eVrNsAVKAexjcZXUckd",
    "self" : "https://api.nasa.gov/neo/rest/v1/feed?start_date=2011-02-08&end_date=2011-02-08&detailed=true&api_key=t0TVs3DtDT2H8Oy2Zy8m2eVrNsAVKAexjcZXUckd"
  },
  "element_count" : 8,
  "near_earth_objects" : {
    "2011-02-08" : [ {
      "links" : {
        "self" : "https://api.nasa.gov/neo/rest/v1/neo/3760586?api_key=t0TVs3DtDT2H8Oy2Zy8m2eVrNsAVKAexjcZXUckd"
      },
      "neo_reference_id" : "3760586",
      "name" : "(2016 TL18)",
      "nasa_jpl_url" : "http://ssd.jpl.nasa.gov/sbdb.cgi?sstr=3760586",
      "absolute_magnitude_h" : 21.6,
      "estimated_diameter" : {
        "kilometers" : {
          "estimated_diameter_min" : 0.1272198785,
          "estimated_diameter_max" : 0.2844722965
        },
        "meters" : {
          "estimated_diameter_min" : 127.2198785394,
          "estimated_diameter_max" : 284.4722965033
        },
        "miles" : {
          "estimated_diameter_min" : 0.0790507431,
          "estimated_diameter_max" : 0.1767628354
        },
        "feet" : {
          "estimated_diameter_min" : 417.3880663071,
          "estimated_diameter_max" : 933.3080892598
        }
      },
      "is_potentially_hazardous_asteroid" : false,
      "close_approach_data" : [ {
        "close_approach_date" : "2011-02-08",
        "epoch_date_close_approach" : 1297152000000,
        "relative_velocity" : {
          "kilometers_per_second" : "12.5843149042",
          "kilometers_per_hour" : "45303.5336551549",
          "miles_per_hour" : "28149.8540092267"
        },
        "miss_distance" : {
          "astronomical" : "0.4268087856",
          "lunar" : "166.0286102295",
          "kilometers" : "63849684",
          "miles" : "39674356"
        },
        "orbiting_body" : "Earth"
      } ],
      "orbital_data" : {
        "orbit_id" : "7",
        "orbit_determination_date" : "2017-04-06 08:23:12",
        "orbit_uncertainty" : "6",
        "minimum_orbit_intersection" : ".132045",
        "jupiter_tisserand_invariant" : "5.021",
        "epoch_osculation" : "2458000.5",
        "eccentricity" : ".6626482115399499",
        "semi_major_axis" : "1.206289130003503",
        "inclination" : "11.04598829694268",
        "ascending_node_longitude" : "55.2552335749522",
        "orbital_period" : "483.9222028238801",
        "perihelion_distance" : ".4069437954065997",
        "perihelion_argument" : "197.0926745340643",
        "aphelion_distance" : "2.005634464600407",
        "perihelion_time" : "2458088.678634045306",
        "mean_anomaly" : "294.4020421648985",
        "mean_motion" : ".7439212292787055",
        "equinox" : "J2000"
      }
    }, {
      "links" : {
        "self" : "https://api.nasa.gov/neo/rest/v1/neo/3557335?api_key=t0TVs3DtDT2H8Oy2Zy8m2eVrNsAVKAexjcZXUckd"
      },
      "neo_reference_id" : "3557335",
      "name" : "(2011 CH33)",
      "nasa_jpl_url" : "http://ssd.jpl.nasa.gov/sbdb.cgi?sstr=3557335",
      "absolute_magnitude_h" : 25.3,
      "estimated_diameter" : {
        "kilometers" : {
          "estimated_diameter_min" : 0.0231502122,
          "estimated_diameter_max" : 0.0517654482
        },
        "meters" : {
          "estimated_diameter_min" : 23.150212221,
          "estimated_diameter_max" : 51.7654482198
        },
        "miles" : {
          "estimated_diameter_min" : 0.0143848705,
          "estimated_diameter_max" : 0.0321655483
        },
        "feet" : {
          "estimated_diameter_min" : 75.9521422633,
          "estimated_diameter_max" : 169.8341531374
        }
      },
      "is_potentially_hazardous_asteroid" : false,
      "close_approach_data" : [ {
        "close_approach_date" : "2011-02-08",
        "epoch_date_close_approach" : 1297152000000,
        "relative_velocity" : {
          "kilometers_per_second" : "6.6031521296",
          "kilometers_per_hour" : "23771.3476665474",
          "miles_per_hour" : "14770.5909986944"
        },
        "miss_distance" : {
          "astronomical" : "0.0372293053",
          "lunar" : "14.4822006226",
          "kilometers" : "5569425",
          "miles" : "3460680.25"
        },
        "orbiting_body" : "Earth"
      } ],
      "orbital_data" : {
        "orbit_id" : "9",
        "orbit_determination_date" : "2017-04-06 08:54:31",
        "orbit_uncertainty" : "7",
        "minimum_orbit_intersection" : ".0381176",
        "jupiter_tisserand_invariant" : "4.718",
        "epoch_osculation" : "2458000.5",
        "eccentricity" : ".2794206109126161",
        "semi_major_axis" : "1.391213692916904",
        "inclination" : "9.926448869232324",
        "ascending_node_longitude" : "144.8412428989674",
        "orbital_period" : "599.3619824359092",
        "perihelion_distance" : "1.002479912932066",
        "perihelion_argument" : "332.0810719905492",
        "aphelion_distance" : "1.779947472901742",
        "perihelion_time" : "2457978.177532771975",
        "mean_anomaly" : "13.40773762364615",
        "mean_motion" : ".6006386967303109",
        "equinox" : "J2000"
      }
    } ]
  }
}